CAPELLA-11 (ACADIA-1)   
1 57693U 23126A   26197.60099992  .00001981  00000+0  25659-3 0  9991
2 57693  53.0084  57.1800 0001938 140.5851 219.5269 14.85056283156499
CAPELLA-14 (ACADIA-4)   
1 59444U 24066C   26197.42798986  .00005130  00000+0  34717-3 0  9995
2 59444  45.6012 101.4049 0002747  73.4558 286.6628 15.07675032116908
CAPELLA-13 (ACADIA-3)   
1 60419U 24142A   26197.72665749  .00002114  00000+0  25583-3 0  9997
2 60419  53.0049 288.6287 0001363  88.5484 271.5652 14.87650578104806
CAPELLA-15 (ACADIA-5)   
1 60544U 24149CE  26197.62237132  .00002161  00000+0  21645-3 0  9990
2 60544  97.6761 269.7879 0002979 339.9463  20.1639 14.92399319104241
CAPELLA-17 (ACADIA-7)   
1 64583U 25135BH  26197.31996809  .00003125  00000+0  31674-3 0  9996
2 64583  97.7710 310.5127 0004143 244.5224 115.5566 14.91626550 58194
CAPELLA-16 (ACADIA-6)   
1 65318U 25188D   26197.62760470  .00003710  00000+0  35270-3 0  9994
2 65318  97.7378 272.3389 0005823 130.6417 229.5310 14.94060553 48315
CAPELLA-19 (ACADIA-9)   
1 67384U 26004X   26197.54474419  .00002708  00000+0  31100-3 0  9997
2 67384  97.8005 195.3877 0001508  94.5367 265.6021 14.86646377 27639
CAPELLA-18 (ACADIA-8)   
1 67385U 26004Y   26197.42015824  .00002425  00000+0  27906-3 0  9991
2 67385  97.8014 195.4195 0001512  95.8421 264.2967 14.86658936 27621
CAPELLA-20 (ACADIA-10)  
1 68485U 26067BX  26197.47304604  .00002777  00000+0  28166-3 0  9993
2 68485  97.7590 155.3029 0001201 146.7659 213.3636 14.91690532 16097
