{"fetched_at":"2026-07-17T06:38:06.905Z","source":"https://celestrak.org/NORAD/elements/gp.php?NAME=CAPELLA&FORMAT=JSON","constellation":"capella","records":[{"OBJECT_NAME":"CAPELLA-11 (ACADIA-1)","OBJECT_ID":"2023-126A","EPOCH":"2026-07-16T14:25:26.393088","CLASSIFICATION_TYPE":"U","MEAN_MOTION":14.85056283,"ECCENTRICITY":0.0001938,"INCLINATION":53.0084,"RA_OF_ASC_NODE":57.18,"ARG_OF_PERICENTER":140.5851,"MEAN_ANOMALY":219.5269,"EPHEMERIS_TYPE":0,"NORAD_CAT_ID":57693,"ELEMENT_SET_NO":999,"REV_AT_EPOCH":15649,"BSTAR":0.00025659,"MEAN_MOTION_DOT":0.00001981,"MEAN_MOTION_DDOT":0},{"OBJECT_NAME":"CAPELLA-14 (ACADIA-4)","OBJECT_ID":"2024-066C","EPOCH":"2026-07-16T10:16:18.323904","CLASSIFICATION_TYPE":"U","MEAN_MOTION":15.07675032,"ECCENTRICITY":0.0002747,"INCLINATION":45.6012,"RA_OF_ASC_NODE":101.4049,"ARG_OF_PERICENTER":73.4558,"MEAN_ANOMALY":286.6628,"EPHEMERIS_TYPE":0,"NORAD_CAT_ID":59444,"ELEMENT_SET_NO":999,"REV_AT_EPOCH":11690,"BSTAR":0.00034717,"MEAN_MOTION_DOT":0.0000513,"MEAN_MOTION_DDOT":0},{"OBJECT_NAME":"CAPELLA-13 (ACADIA-3)","OBJECT_ID":"2024-142A","EPOCH":"2026-07-16T17:26:23.207136","CLASSIFICATION_TYPE":"U","MEAN_MOTION":14.87650578,"ECCENTRICITY":0.0001363,"INCLINATION":53.0049,"RA_OF_ASC_NODE":288.6287,"ARG_OF_PERICENTER":88.5484,"MEAN_ANOMALY":271.5652,"EPHEMERIS_TYPE":0,"NORAD_CAT_ID":60419,"ELEMENT_SET_NO":999,"REV_AT_EPOCH":10480,"BSTAR":0.00025583,"MEAN_MOTION_DOT":0.00002114,"MEAN_MOTION_DDOT":0},{"OBJECT_NAME":"CAPELLA-15 (ACADIA-5)","OBJECT_ID":"2024-149CE","EPOCH":"2026-07-16T14:56:12.882048","CLASSIFICATION_TYPE":"U","MEAN_MOTION":14.92399319,"ECCENTRICITY":0.0002979,"INCLINATION":97.6761,"RA_OF_ASC_NODE":269.7879,"ARG_OF_PERICENTER":339.9463,"MEAN_ANOMALY":20.1639,"EPHEMERIS_TYPE":0,"NORAD_CAT_ID":60544,"ELEMENT_SET_NO":999,"REV_AT_EPOCH":10424,"BSTAR":0.00021645,"MEAN_MOTION_DOT":0.00002161,"MEAN_MOTION_DDOT":0},{"OBJECT_NAME":"CAPELLA-17 (ACADIA-7)","OBJECT_ID":"2025-135BH","EPOCH":"2026-07-16T07:40:45.242976","CLASSIFICATION_TYPE":"U","MEAN_MOTION":14.9162655,"ECCENTRICITY":0.0004143,"INCLINATION":97.771,"RA_OF_ASC_NODE":310.5127,"ARG_OF_PERICENTER":244.5224,"MEAN_ANOMALY":115.5566,"EPHEMERIS_TYPE":0,"NORAD_CAT_ID":64583,"ELEMENT_SET_NO":999,"REV_AT_EPOCH":5819,"BSTAR":0.00031674,"MEAN_MOTION_DOT":0.00003125,"MEAN_MOTION_DDOT":0},{"OBJECT_NAME":"CAPELLA-16 (ACADIA-6)","OBJECT_ID":"2025-188D","EPOCH":"2026-07-16T15:03:45.046080","CLASSIFICATION_TYPE":"U","MEAN_MOTION":14.94060553,"ECCENTRICITY":0.0005823,"INCLINATION":97.7378,"RA_OF_ASC_NODE":272.3389,"ARG_OF_PERICENTER":130.6417,"MEAN_ANOMALY":229.531,"EPHEMERIS_TYPE":0,"NORAD_CAT_ID":65318,"ELEMENT_SET_NO":999,"REV_AT_EPOCH":4831,"BSTAR":0.0003527,"MEAN_MOTION_DOT":0.0000371,"MEAN_MOTION_DDOT":0},{"OBJECT_NAME":"CAPELLA-19 (ACADIA-9)","OBJECT_ID":"2026-004X","EPOCH":"2026-07-16T13:04:25.898016","CLASSIFICATION_TYPE":"U","MEAN_MOTION":14.86646377,"ECCENTRICITY":0.0001508,"INCLINATION":97.8005,"RA_OF_ASC_NODE":195.3877,"ARG_OF_PERICENTER":94.5367,"MEAN_ANOMALY":265.6021,"EPHEMERIS_TYPE":0,"NORAD_CAT_ID":67384,"ELEMENT_SET_NO":999,"REV_AT_EPOCH":2763,"BSTAR":0.000311,"MEAN_MOTION_DOT":0.00002708,"MEAN_MOTION_DDOT":0},{"OBJECT_NAME":"CAPELLA-18 (ACADIA-8)","OBJECT_ID":"2026-004Y","EPOCH":"2026-07-16T10:05:01.671936","CLASSIFICATION_TYPE":"U","MEAN_MOTION":14.86658936,"ECCENTRICITY":0.0001512,"INCLINATION":97.8014,"RA_OF_ASC_NODE":195.4195,"ARG_OF_PERICENTER":95.8421,"MEAN_ANOMALY":264.2967,"EPHEMERIS_TYPE":0,"NORAD_CAT_ID":67385,"ELEMENT_SET_NO":999,"REV_AT_EPOCH":2762,"BSTAR":0.00027906,"MEAN_MOTION_DOT":0.00002425,"MEAN_MOTION_DDOT":0},{"OBJECT_NAME":"CAPELLA-20 (ACADIA-10)","OBJECT_ID":"2026-067BX","EPOCH":"2026-07-16T11:21:11.177856","CLASSIFICATION_TYPE":"U","MEAN_MOTION":14.91690532,"ECCENTRICITY":0.0001201,"INCLINATION":97.759,"RA_OF_ASC_NODE":155.3029,"ARG_OF_PERICENTER":146.7659,"MEAN_ANOMALY":213.3636,"EPHEMERIS_TYPE":0,"NORAD_CAT_ID":68485,"ELEMENT_SET_NO":999,"REV_AT_EPOCH":1609,"BSTAR":0.00028166,"MEAN_MOTION_DOT":0.00002777,"MEAN_MOTION_DDOT":0}]}
